{"fetched_at":"2026-03-29T16:36:15Z","count":15609,"tles":[{"name":"STARLINK-34561","line1":"1 65081U 25167D   26087.86885315  .00027235  00000+0  92805-3 0  9993","line2":"2 65081  53.1584 294.9654 0001174  67.9949 292.1176 15.30208568 37707","category":"Starlink"}]}